[
    {
        "CCSDS_OMM_VERS": "3.0",
        "COMMENT": "GENERATED VIA SPACE-TRACK.ORG API",
        "CREATION_DATE": "2025-03-02T18:08:23",
        "ORIGINATOR": "18 SPCS",
        "OBJECT_NAME": "GALILEO-PFM",
        "OBJECT_ID": "2011-060A",
        "CENTER_NAME": "EARTH",
        "REF_FRAME": "TEME",
        "TIME_SYSTEM": "UTC",
        "MEAN_ELEMENT_THEORY": "SGP4",
        "EPOCH": "2025-03-01T01:27:32.624064",
        "MEAN_MOTION": "1.70475553",
        "ECCENTRICITY": "0.00041420",
        "INCLINATION": "57.1140",
        "RA_OF_ASC_NODE": "354.5841",
        "ARG_OF_PERICENTER": "343.0067",
        "MEAN_ANOMALY": "16.9840",
        "EPHEMERIS_TYPE": "0",
        "CLASSIFICATION_TYPE": "U",
        "NORAD_CAT_ID": "37846",
        "ELEMENT_SET_NO": "999",
        "REV_AT_EPOCH": "8305",
        "BSTAR": "0.00000000000000",
        "MEAN_MOTION_DOT": "-0.00000084",
        "MEAN_MOTION_DDOT": "0.0000000000000",
        "SEMIMAJOR_AXIS": "29600.140",
        "PERIOD": "844.696",
        "APOAPSIS": "23234.266",
        "PERIAPSIS": "23209.745",
        "OBJECT_TYPE": "PAYLOAD",
        "RCS_SIZE": "LARGE",
        "COUNTRY_CODE": "ESA",
        "LAUNCH_DATE": "2011-10-21",
        "SITE": "FRGUI",
        "DECAY_DATE": null,
        "FILE": "4657142",
        "GP_ID": "282083859",
        "TLE_LINE0": "0 GALILEO-PFM",
        "TLE_LINE1": "1 37846U 11060A   25060.06079426 -.00000084  00000-0  00000-0 0  9996",
        "TLE_LINE2": "2 37846  57.1140 354.5841 0004142 343.0067  16.9840  1.70475553 83053"
    }
]